ONEWEB-0128             
1 47274U 20100S   24142.52952107  .00000465  00000+0  12572-2 0  9994
2 47274  87.8934 141.3230 0002277  94.1539 265.9850 13.12442657165493
ONEWEB-0129             
1 47275U 20100T   24142.35638391  .00000243  00000+0  64139-3 0  9993
2 47275  87.8927 141.3262 0003144  60.9394 299.2049 13.12445995165404
ONEWEB-0130             
1 47276U 20100U   24142.53747160  .00001294  00000+0  35620-2 0  9998
2 47276  87.8925 141.2985 0002199  88.1034 272.0346 13.12436871165396
ONEWEB-0131             
1 47277U 20100V   24142.53426977  .00000318  00000+0  84957-3 0  9993
2 47277  87.8929 141.3132 0002110  92.0049 268.1321 13.12444260165434
ONEWEB-0132             
1 47278U 20100W   24142.48663718 -.00000378  00000+0 -10855-2 0  9997
2 47278  87.8930 141.3246 0001917  95.7819 264.3528 13.12442947165327
ONEWEB-0133             
1 47279U 20100X   24142.50251073 -.00000055  00000+0 -18741-3 0  9993
2 47279  87.8924 141.3215 0002101  92.4774 267.6595 13.12443498165486
ONEWEB-0134             
1 47280U 20100Y   24142.54856723 -.00000168  00000+0 -50149-3 0  9995
2 47280  87.8923 141.3003 0002322  89.9182 270.2213 13.12443028165465
ONEWEB-0135             
1 47281U 20100Z   24142.51680774  .00000368  00000+0  98734-3 0  9996
2 47281  87.8928 141.3207 0002143  88.5374 271.6000 13.12442486165484
